{
  "type": "FeatureCollection",
  "features": [
    {
      "type": "Feature",
      "properties": {
        "norad_id": 33791,
        "name": "COSMOS 2251 DEB",
        "group": "cosmos-2251-debris",
        "lat": 53.47654357486241,
        "lon": -170.84250607426435,
        "alt_km": 748.3220649815285,
        "timestamp": "2025-12-15T22:44:29.322723+00:00",
        "meta_object_name": "COSMOS 2251 DEB",
        "meta_object_id": "1993-036AG",
        "meta_epoch": "2025-12-15T08:56:11.823648",
        "meta_mean_motion": 14.43138212,
        "meta_eccentricity": 0.00304332,
        "meta_inclination": 74.1754,
        "meta_ra_of_asc_node": 32.7335,
        "meta_arg_of_pericenter": 229.5304,
        "meta_mean_anomaly": 146.9715,
        "meta_ephemeris_type": 0,
        "meta_classification_type": "U",
        "meta_norad_cat_id": 33791,
        "meta_element_set_no": 999,
        "meta_rev_at_epoch": 88090,
        "meta_bstar": 0.0006565547,
        "meta_mean_motion_dot": 2.192e-05,
        "meta_mean_motion_ddot": 0,
        "tle_line1": "1 33791U 93036AG  25349.37235907  .00002192  00000+0  65655-3 0  9996",
        "tle_line2": "2 33791  74.1754  32.7335 0030433 229.5304 146.9715 14.43138212880901"
      },
      "geometry": {
        "type": "Point",
        "coordinates": [
          -170.84250607426435,
          53.47654357486241
        ]
      }
    },
    {
      "type": "Feature",
      "properties": {
        "norad_id": 33792,
        "name": "COSMOS 2251 DEB",
        "group": "cosmos-2251-debris",
        "lat": 43.06687552626513,
        "lon": 144.561691513815,
        "alt_km": 1071.9710515093057,
        "timestamp": "2025-12-15T22:44:29.322734+00:00",
        "meta_object_name": "COSMOS 2251 DEB",
        "meta_object_id": "1993-036AH",
        "meta_epoch": "2025-12-15T08:22:27.919200",
        "meta_mean_motion": 13.45826777,
        "meta_eccentricity": 0.04272017,
        "meta_inclination": 73.901,
        "meta_ra_of_asc_node": 341.1774,
        "meta_arg_of_pericenter": 45.3453,
        "meta_mean_anomaly": 65.1168,
        "meta_ephemeris_type": 0,
        "meta_classification_type": "U",
        "meta_norad_cat_id": 33792,
        "meta_element_set_no": 999,
        "meta_rev_at_epoch": 82477,
        "meta_bstar": 0.00090454806,
        "meta_mean_motion_dot": 9.18e-06,
        "meta_mean_motion_ddot": 0,
        "tle_line1": "1 33792U 93036AH  25349.34893425  .00000918  00000+0  90455-3 0  9999",
        "tle_line2": "2 33792  73.9010 341.1774 0427201  45.3453  65.1168 13.45826777824778"
      },
      "geometry": {
        "type": "Point",
        "coordinates": [
          144.561691513815,
          43.06687552626513
        ]
      }
    },
    {
      "type": "Feature",
      "properties": {
        "norad_id": 33793,
        "name": "COSMOS 2251 DEB",
        "group": "cosmos-2251-debris",
        "lat": -8.793263681067735,
        "lon": -33.36504807457691,
        "alt_km": 816.6815542688137,
        "timestamp": "2025-12-15T22:44:29.322745+00:00",
        "meta_object_name": "COSMOS 2251 DEB",
        "meta_object_id": "1993-036AJ",
        "meta_epoch": "2025-12-14T21:20:16.932768",
        "meta_mean_motion": 14.27730347,
        "meta_eccentricity": 0.00785497,
        "meta_inclination": 73.9804,
        "meta_ra_of_asc_node": 146.0109,
        "meta_arg_of_pericenter": 295.6911,
        "meta_mean_anomaly": 215.9849,
        "meta_ephemeris_type": 0,
        "meta_classification_type": "U",
        "meta_norad_cat_id": 33793,
        "meta_element_set_no": 999,
        "meta_rev_at_epoch": 87237,
        "meta_bstar": 0.00061454085,
        "meta_mean_motion_dot": 1.541e-05,
        "meta_mean_motion_ddot": 0,
        "tle_line1": "1 33793U 93036AJ  25348.88908487  .00001541  00000+0  61454-3 0  9993",
        "tle_line2": "2 33793  73.9804 146.0109 0078549 295.6911 215.9849 14.27730347872378"
      },
      "geometry": {
        "type": "Point",
        "coordinates": [
          -33.36504807457691,
          -8.793263681067735
        ]
      }
    },
    {
      "type": "Feature",
      "properties": {
        "norad_id": 33795,
        "name": "COSMOS 2251 DEB",
        "group": "cosmos-2251-debris",
        "lat": -43.39499078700553,
        "lon": 54.45240609341953,
        "alt_km": 576.4891537155545,
        "timestamp": "2025-12-15T22:44:29.322756+00:00",
        "meta_object_name": "COSMOS 2251 DEB",
        "meta_object_id": "1993-036AL",
        "meta_epoch": "2025-12-15T08:56:10.745376",
        "meta_mean_motion": 15.05617777,
        "meta_eccentricity": 0.00311856,
        "meta_inclination": 74.0321,
        "meta_ra_of_asc_node": 71.339,
        "meta_arg_of_pericenter": 153.434,
        "meta_mean_anomaly": 284.4602,
        "meta_ephemeris_type": 0,
        "meta_classification_type": "U",
        "meta_norad_cat_id": 33795,
        "meta_element_set_no": 999,
        "meta_rev_at_epoch": 90061,
        "meta_bstar": 0.00083458959,
        "meta_mean_motion_dot": 0.00012153,
        "meta_mean_motion_ddot": 0,
        "tle_line1": "1 33795U 93036AL  25349.37234659  .00012153  00000+0  83459-3 0  9993",
        "tle_line2": "2 33795  74.0321  71.3390 0031185 153.4340 284.4602 15.05617777900615"
      },
      "geometry": {
        "type": "Point",
        "coordinates": [
          54.45240609341953,
          -43.39499078700553
        ]
      }
    },
    {
      "type": "Feature",
      "properties": {
        "norad_id": 33797,
        "name": "COSMOS 2251 DEB",
        "group": "cosmos-2251-debris",
        "lat": -53.63794327029944,
        "lon": 6.002704766426966,
        "alt_km": 749.2688350095505,
        "timestamp": "2025-12-15T22:44:29.322781+00:00",
        "meta_object_name": "COSMOS 2251 DEB",
        "meta_object_id": "1993-036AN",
        "meta_epoch": "2025-12-15T06:53:13.076160",
        "meta_mean_motion": 14.5785826,
        "meta_eccentricity": 0.00605774,
        "meta_inclination": 74.0481,
        "meta_ra_of_asc_node": 30.1184,
        "meta_arg_of_pericenter": 117.2434,
        "meta_mean_anomaly": 320.4062,
        "meta_ephemeris_type": 0,
        "meta_classification_type": "U",
        "meta_norad_cat_id": 33797,
        "meta_element_set_no": 999,
        "meta_rev_at_epoch": 89022,
        "meta_bstar": 0.00031972352,
        "meta_mean_motion_dot": 1.472e-05,
        "meta_mean_motion_ddot": 0,
        "tle_line1": "1 33797U 93036AN  25349.28695690  .00001472  00000+0  31972-3 0  9996",
        "tle_line2": "2 33797  74.0481  30.1184 0060577 117.2434 320.4062 14.57858260890223"
      },
      "geometry": {
        "type": "Point",
        "coordinates": [
          6.002704766426966,
          -53.63794327029944
        ]
      }
    },
    {
      "type": "Feature",
      "properties": {
        "norad_id": 33798,
        "name": "COSMOS 2251 DEB",
        "group": "cosmos-2251-debris",
        "lat": 29.1576974126403,
        "lon": 139.1250181150414,
        "alt_km": 791.6936826422261,
        "timestamp": "2025-12-15T22:44:29.322805+00:00",
        "meta_object_name": "COSMOS 2251 DEB",
        "meta_object_id": "1993-036AP",
        "meta_epoch": "2025-12-15T03:28:50.219616",
        "meta_mean_motion": 14.44617166,
        "meta_eccentricity": 0.00924725,
        "meta_inclination": 74.0284,
        "meta_ra_of_asc_node": 131.425,
        "meta_arg_of_pericenter": 252.2774,
        "meta_mean_anomaly": 285.5867,
        "meta_ephemeris_type": 0,
        "meta_classification_type": "U",
        "meta_norad_cat_id": 33798,
        "meta_element_set_no": 999,
        "meta_rev_at_epoch": 88628,
        "meta_bstar": 0.0001799813,
        "meta_mean_motion_dot": 6.27e-06,
        "meta_mean_motion_ddot": 0,
        "tle_line1": "1 33798U 93036AP  25349.14502569  .00000627  00000+0  17998-3 0  9997",
        "tle_line2": "2 33798  74.0284 131.4250 0092472 252.2774 285.5867 14.44617166886289"
      },
      "geometry": {
        "type": "Point",
        "coordinates": [
          139.1250181150414,
          29.1576974126403
        ]
      }
    },
    {
      "type": "Feature",
      "properties": {
        "norad_id": 33799,
        "name": "COSMOS 2251 DEB",
        "group": "cosmos-2251-debris",
        "lat": -40.62162568000303,
        "lon": 61.25307790235008,
        "alt_km": 652.742694872446,
        "timestamp": "2025-12-15T22:44:29.322827+00:00",
        "meta_object_name": "COSMOS 2251 DEB",
        "meta_object_id": "1993-036AQ",
        "meta_epoch": "2025-12-15T08:39:22.101408",
        "meta_mean_motion": 14.79640718,
        "meta_eccentricity": 0.00231713,
        "meta_inclination": 74.032,
        "meta_ra_of_asc_node": 76.6258,
        "meta_arg_of_pericenter": 146.3514,
        "meta_mean_anomaly": 286.1938,
        "meta_ephemeris_type": 0,
        "meta_classification_type": "U",
        "meta_norad_cat_id": 33799,
        "meta_element_set_no": 999,
        "meta_rev_at_epoch": 88850,
        "meta_bstar": 0.00073629988,
        "meta_mean_motion_dot": 5.518e-05,
        "meta_mean_motion_ddot": 0,
        "tle_line1": "1 33799U 93036AQ  25349.36067247  .00005518  00000+0  73630-3 0  9990",
        "tle_line2": "2 33799  74.0320  76.6258 0023171 146.3514 286.1938 14.79640718888504"
      },
      "geometry": {
        "type": "Point",
        "coordinates": [
          61.25307790235008,
          -40.62162568000303
        ]
      }
    }
  ]
}